#aV2023  2 23  0  0  0.00000000     288 DD+AD WGS84 FIT  NGA
## 2250 345600.00000000   300.00000000 59998 0.0000000000000
+   32     1  2  3  4  5  6  7  8  9 10 11 12 13 14 15 16 17
+         18 19 20 21 22 23 24 25 26 27 28 29 30 31 32  0  0
+          0  0  0  0  0  0  0  0  0  0  0  0  0  0  0  0  0
+          0  0  0  0  0  0  0  0  0  0  0  0  0  0  0  0  0
+          0  0  0  0  0  0  0  0  0  0  0  0  0  0  0  0  0
++         2  2  2  2  2  2  2  2  2  2  2  2  2  2  2  2  2
++         2  2  2  2  2  2  2  2  2  2  2  2  2  2  2  0  0
++         0  0  0  0  0  0  0  0  0  0  0  0  0  0  0  0  0
++         0  0  0  0  0  0  0  0  0  0  0  0  0  0  0  0  0
++         0  0  0  0  0  0  0  0  0  0  0  0  0  0  0  0  0
%c cc cc ccc ccc cccc cccc cccc cccc ccccc ccccc ccccc ccccc
%c cc cc ccc ccc cccc cccc cccc cccc ccccc ccccc ccccc ccccc
%f  0.0000000  0.000000000  0.00000000000  0.000000000000000
%f  0.0000000  0.000000000  0.00000000000  0.000000000000000
%i    0    0    0    0      0      0      0      0         0
%i    0    0    0    0      0      0      0      0         0
/*      NGA, ST. LOUIS,MO.                                  
/*   EPHEMERIS COMPUTED FROM 2 DAYS OF DATA                 
/*   EPOCHA v8 SMOOTHER                                     
/*   G2139 IERS2010 SATIGS SATAPC                           
*  2023  2 23 14  0  0.00000000
P  1 -19051.138646 -14060.698850 -12703.249949    209.382522                    
V  1  15193.186150   3023.297739 -26466.073485     -0.041010                    
P  2  21567.693713  11446.025256  10778.567781   -618.866666                    
V  2 -13043.115353     -9.519520  27957.884407      0.026368                    
P  3 -12687.121189 -21088.241967  10016.280964   -359.492939                    
V  3  -1426.310474 -12911.033819 -28527.471672      0.051475                    
P  4 -11196.433767 -10288.411351  21788.548491    -21.222263                    
V  4  20120.018081 -18945.275549   1284.722896      0.083409                    
P  5   4733.354766  25607.253746   4720.586321   -117.019785                    
V  5  -4529.203958  -5088.950668  31153.149046     -0.014705                    
P  6 -18314.545771   7223.938744  17941.621320    575.538148                    
V  6 -21462.711029  -6980.770550 -19078.720883      0.039263                    
P  7 -25867.870277  -7114.922826    225.160080    235.571873                    
V  7    480.104191  -2691.565143  31208.185505     -0.072681                    
P  8   -663.200378 -18549.135083 -18906.179491   -109.875370                    
V  8  17676.027204 -16347.291732  15851.721435     -0.018402                    
P  9 -18843.880399    674.101718  18649.907155   -212.818041                    
V  9  15363.239421 -18283.996913  16073.700383      0.071798                    
P 10  12990.089882  -7796.844060 -21607.009227    -25.911631                    
V 10   7823.049331  26728.975966  -5202.496495     -0.015988                    
P 11  -4752.058993  14365.806831  21839.575414   -112.121552                    
V 11 -26355.988129  -8494.320071   -179.701722     -0.105744                    
P 12  10327.798443  22986.593276   8264.866754   -343.833144                    
V 12   -312.356822  11116.520453 -29427.705842     -0.046045                    
P 13  -8168.190409  19788.305370 -15768.885345    480.709160                    
V 13 -16840.690010  10502.526085  22338.662055      0.059998                    
P 14 -14730.205455   4817.898712 -21559.702057    -20.169484                    
V 14  -6489.425083 -26659.065942  -1652.162802      0.093519                    
P 15   3618.821440  18591.868461 -18968.193854     15.987709                    
V 15 -15497.302680  17555.674762  14873.470551      0.033346                    
P 16     82.120884 -25417.230087   6521.455814   -518.731811                    
V 16   4464.506527   8128.172840  30680.755034      0.018281                    
P 17 -22063.586664  12003.250759  -8355.059252    701.805986                    
V 17   6903.415483  -9044.426264 -29595.804199      0.022410                    
P 18  25926.939107   4387.413705  -4257.008716   -152.747330                    
V 18   4554.500977   3643.877911  31333.007619     -0.160092                    
P 19 -20085.216871  17105.368250    958.532493    281.572858                    
V 19  -2814.762137  -1089.909427 -32213.860082      0.050896                    
P 20  -1674.168999  22060.727382  14879.761452    448.932742                    
V 20  -9844.313943 -16156.711015  22691.017753     -0.023548                    
P 21 -12741.047848 -14829.982608 -17759.839530    154.143682                    
V 21  23299.059593   2803.977258 -17651.284769      0.001554                    
P 22  17495.694353 -19350.436969   4904.800593    432.847271                    
V 22   6151.634548  -1577.252680 -31097.191963      0.075823                    
P 23  16142.029459   5103.628943 -20497.461029      7.447569                    
V 23   6720.528786  25093.494218  11397.095481      0.017593                    
P 24  16046.154669  14704.358257 -15849.624503    -85.806421                    
V 24 -19480.216461  -1265.771443 -20953.947023     -0.158021                    
P 25  15526.632241  15035.900844  15305.651391    422.523961                    
V 25   3413.924296  19719.763632 -22108.962379      0.031624                    
P 26   7612.713446 -18072.171924  17644.159931    241.710334                    
V 26   9520.759458  20890.289046  17517.422266      0.002485                    
P 27   9859.198639 -21519.825675 -11845.452544     95.579997                    
V 27  12128.611621  -8841.637966  27098.777658     -0.089162                    
P 28  19727.204018  -7133.092262  16255.186324     23.362972                    
V 28  19768.709340   6421.875691 -21136.633420      0.134912                    
P 29  16734.229300   3611.511524  20279.069209   -587.653569                    
V 29 -18972.932619  17487.694983  12436.086165     -0.020263                    
P 30 -23728.062228   2491.174885 -11844.215410   -529.299086                    
V 30 -13841.349120  -6776.973088  25829.395337      0.013584                    
P 31  17193.214914  -8557.797309  18366.304447   -210.013430                    
V 31  22210.717971   7880.324945 -16517.241512     -0.010045                    
P 32  20848.287725 -14911.550778  -6377.545415   -404.873127                    
V 32  -3759.037670   8025.015807 -30452.745335     -0.113858                    
EOF
